[{"OBJECT_NAME":"STARLINK-32908","OBJECT_ID":"2025-037H","EPOCH":"2026-03-09T21:33:28.159776","MEAN_MOTION":14.98334862,"ECCENTRICITY":0.00027491,"INCLINATION":70.0038,"RA_OF_ASC_NODE":353.9146,"ARG_OF_PERICENTER":251.3607,"MEAN_ANOMALY":108.7254,"EPHEMERIS_TYPE":0,"CLASSIFICATION_TYPE":"U","NORAD_CAT_ID":63084,"ELEMENT_SET_NO":999,"REV_AT_EPOCH":5849,"BSTAR":0.00077539397,"MEAN_MOTION_DOT":9.172e-5,"MEAN_MOTION_DDOT":0},{"OBJECT_NAME":"NOAA 16 DEB","OBJECT_ID":"2000-055NX","EPOCH":"2026-03-08T23:11:13.556832","MEAN_MOTION":15.01016664,"ECCENTRICITY":0.00157984,"INCLINATION":98.8636,"RA_OF_ASC_NODE":259.6913,"ARG_OF_PERICENTER":295.8562,"MEAN_ANOMALY":64.1029,"EPHEMERIS_TYPE":0,"CLASSIFICATION_TYPE":"U","NORAD_CAT_ID":41658,"ELEMENT_SET_NO":999,"REV_AT_EPOCH":9741,"BSTAR":0.010110988,"MEAN_MOTION_DOT":0.00131742,"MEAN_MOTION_DDOT":0}]
